SEEDS II (CO-66)        
1 32791U 08021J   26068.92109284  .00023758  00000+0  84213-3 0  9995
2 32791  97.7519  62.3611 0001448 359.2618   0.8619 15.29097235972108
STARLINK-35665          
1 66390U 25257L   26068.68109817  .00021862  00000+0  74799-3 0  9994
2 66390  53.1590 216.9444 0001394  66.0867 294.0280 15.30203380 19830
